{"type": "FeatureCollection", "features": [ {"type": "Feature", "properties": {"norad_id": 29795, "name": "FENGYUN 1C DEB", "group": "fengyun-1c-debris", "lat": 39.23176707678401, "lon": 104.79388030834075, "alt_km": 945.1374218747378, "timestamp": "2025-12-08T13:49:32.063853+00:00", "meta": {"OBJECT_NAME": "FENGYUN 1C DEB", "OBJECT_ID": "1999-025CM", "EPOCH": "2025-12-06T20:53:28.329792", "MEAN_MOTION": 13.92904611, "ECCENTRICITY": 0.01110503, "INCLINATION": 98.87, "RA_OF_ASC_NODE": 110.4848, "ARG_OF_PERICENTER": 292.4407, "MEAN_ANOMALY": 198.2819, "EPHEMERIS_TYPE": 0, "CLASSIFICATION_TYPE": "U", "NORAD_CAT_ID": 29795, "ELEMENT_SET_NO": 999, "REV_AT_EPOCH": 95983, "BSTAR": 0.00027397759, "MEAN_MOTION_DOT": 3.31e-06, "MEAN_MOTION_DDOT": 0}, "tle": {"line1": "1 29795U 99025CM  25340.87046678  .00000331  00000+0  27398-3 0  9995", "line2": "2 29795  98.8700 110.4848 0111050 292.4407 198.2819 13.92904611959836"}}, "geometry": {"type": "Point", "coordinates": [104.79388030834075, 39.23176707678401]}}, {"type": "Feature", "properties": {"norad_id": 29796, "name": "FENGYUN 1C DEB", "group": "fengyun-1c-debris", "lat": 80.97459847803292, "lon": -66.2189597471982, "alt_km": 881.0006909987151, "timestamp": "2025-12-08T13:49:32.063863+00:00", "meta": {"OBJECT_NAME": "FENGYUN 1C DEB", "OBJECT_ID": "1999-025CN", "EPOCH": "2025-12-08T03:18:32.440608", "MEAN_MOTION": 14.12318935, "ECCENTRICITY": 0.00517258, "INCLINATION": 98.8651, "RA_OF_ASC_NODE": 34.0607, "ARG_OF_PERICENTER": 281.1116, "MEAN_ANOMALY": 103.7999, "EPHEMERIS_TYPE": 0, "CLASSIFICATION_TYPE": "U", "NORAD_CAT_ID": 29796, "ELEMENT_SET_NO": 999, "REV_AT_EPOCH": 96996, "BSTAR": 0.0009793845, "MEAN_MOTION_DOT": 1.782e-05, "MEAN_MOTION_DDOT": 0}, "tle": {"line1": "1 29796U 99025CN  25342.13787547  .00001782  00000+0  97938-3 0  9992", "line2": "2 29796  98.8651  34.0607 0051725 281.1116 103.7999 14.12318935969966"}}, "geometry": {"type": "Point", "coordinates": [-66.2189597471982, 80.97459847803292]}}, {"type": "Feature", "properties": {"norad_id": 29798, "name": "FENGYUN 1C DEB", "group": "fengyun-1c-debris", "lat": -73.40039266393865, "lon": 79.7412468571951, "alt_km": 821.5801589436151, "timestamp": "2025-12-08T13:49:32.063874+00:00", "meta": {"OBJECT_NAME": "FENGYUN 1C DEB", "OBJECT_ID": "1999-025CQ", "EPOCH": "2025-12-08T04:09:20.777760", "MEAN_MOTION": 13.9954063, "ECCENTRICITY": 0.01114302, "INCLINATION": 99.295, "RA_OF_ASC_NODE": 46.0088, "ARG_OF_PERICENTER": 284.9607, "MEAN_ANOMALY": 129.9894, "EPHEMERIS_TYPE": 0, "CLASSIFICATION_TYPE": "U", "NORAD_CAT_ID": 29798, "ELEMENT_SET_NO": 999, "REV_AT_EPOCH": 95861, "BSTAR": 0.0017993213, "MEAN_MOTION_DOT": 2.723e-05, "MEAN_MOTION_DDOT": 0}, "tle": {"line1": "1 29798U 99025CQ  25342.17315715  .00002723  00000+0  17993-2 0  9990", "line2": "2 29798  99.2950  46.0088 0111430 284.9607 129.9894 13.99540630958614"}}, "geometry": {"type": "Point", "coordinates": [79.7412468571951, -73.40039266393865]}}, {"type": "Feature", "properties": {"norad_id": 29800, "name": "FENGYUN 1C DEB", "group": "fengyun-1c-debris", "lat": 72.16162193627589, "lon": -148.4796617513912, "alt_km": 957.6531342842218, "timestamp": "2025-12-08T13:49:32.063884+00:00", "meta": {"OBJECT_NAME": "FENGYUN 1C DEB", "OBJECT_ID": "1999-025CS", "EPOCH": "2025-12-07T13:54:35.069184", "MEAN_MOTION": 13.98523935, "ECCENTRICITY": 0.01333644, "INCLINATION": 98.2892, "RA_OF_ASC_NODE": 3.6816, "ARG_OF_PERICENTER": 241.8118, "MEAN_ANOMALY": 250.8891, "EPHEMERIS_TYPE": 0, "CLASSIFICATION_TYPE": "U", "NORAD_CAT_ID": 29800, "ELEMENT_SET_NO": 999, "REV_AT_EPOCH": 95504, "BSTAR": 0.0028750357, "MEAN_MOTION_DOT": 4.407e-05, "MEAN_MOTION_DDOT": 0}, "tle": {"line1": "1 29800U 99025CS  25341.57957256  .00004407  00000+0  28750-2 0  9993", "line2": "2 29800  98.2892   3.6816 0133364 241.8118 250.8891 13.98523935955042"}}, "geometry": {"type": "Point", "coordinates": [-148.4796617513912, 72.16162193627589]}}, {"type": "Feature", "properties": {"norad_id": 29801, "name": "FENGYUN 1C DEB", "group": "fengyun-1c-debris", "lat": -11.209686949567017, "lon": 61.75676688131607, "alt_km": 773.8095718038303, "timestamp": "2025-12-08T13:49:32.063894+00:00", "meta": {"OBJECT_NAME": "FENGYUN 1C DEB", "OBJECT_ID": "1999-025CT", "EPOCH": "2025-12-08T06:49:48.504288", "MEAN_MOTION": 14.35888864, "ECCENTRICITY": 0.01029005, "INCLINATION": 98.7949, "RA_OF_ASC_NODE": 243.2177, "ARG_OF_PERICENTER": 280.6703, "MEAN_ANOMALY": 205.8943, "EPHEMERIS_TYPE": 0, "CLASSIFICATION_TYPE": "U", "NORAD_CAT_ID": 29801, "ELEMENT_SET_NO": 999, "REV_AT_EPOCH": 98877, "BSTAR": 0.00038470623, "MEAN_MOTION_DOT": 1.136e-05, "MEAN_MOTION_DDOT": 0}, "tle": {"line1": "1 29801U 99025CT  25342.28458917  .00001136  00000+0  38471-3 0  9991", "line2": "2 29801  98.7949 243.2177 0102900 280.6703 205.8943 14.35888864988777"}}, "geometry": {"type": "Point", "coordinates": [61.75676688131607, -11.209686949567017]}}, {"type": "Feature", "properties": {"norad_id": 29802, "name": "FENGYUN 1C DEB", "group": "fengyun-1c-debris", "lat": 38.6320662547109, "lon": -81.52571890154867, "alt_km": 705.6575897053226, "timestamp": "2025-12-08T13:49:32.063905+00:00", "meta": {"OBJECT_NAME": "FENGYUN 1C DEB", "OBJECT_ID": "1999-025CU", "EPOCH": "2025-12-08T06:51:37.059840", "MEAN_MOTION": 14.62132017, "ECCENTRICITY": 0.00369533, "INCLINATION": 98.6198, "RA_OF_ASC_NODE": 91.2085, "ARG_OF_PERICENTER": 352.8876, "MEAN_ANOMALY": 60.9164, "EPHEMERIS_TYPE": 0, "CLASSIFICATION_TYPE": "U", "NORAD_CAT_ID": 29802, "ELEMENT_SET_NO": 999, "REV_AT_EPOCH": 98408, "BSTAR": 0.0033221872, "MEAN_MOTION_DOT": 0.00016854, "MEAN_MOTION_DDOT": 0}, "tle": {"line1": "1 29802U 99025CU  25342.28584560  .00016854  00000+0  33222-2 0  9997", "line2": "2 29802  98.6198  91.2085 0036953 352.8876  60.9164 14.62132017984086"}}, "geometry": {"type": "Point", "coordinates": [-81.52571890154867, 38.6320662547109]}}, {"type": "Feature", "properties": {"norad_id": 29804, "name": "FENGYUN 1C DEB", "group": "fengyun-1c-debris", "lat": -74.06995345868886, "lon": 138.01984377660946, "alt_km": 847.106252312542, "timestamp": "2025-12-08T13:49:32.063915+00:00", "meta": {"OBJECT_NAME": "FENGYUN 1C DEB", "OBJECT_ID": "1999-025CW", "EPOCH": "2025-12-07T23:14:01.646304", "MEAN_MOTION": 14.0431918, "ECCENTRICITY": 0.00973917, "INCLINATION": 98.8054, "RA_OF_ASC_NODE": 350.3224, "ARG_OF_PERICENTER": 315.2761, "MEAN_ANOMALY": 110.2747, "EPHEMERIS_TYPE": 0, "CLASSIFICATION_TYPE": "U", "NORAD_CAT_ID": 29804, "ELEMENT_SET_NO": 999, "REV_AT_EPOCH": 96827, "BSTAR": 0.00026144653, "MEAN_MOTION_DOT": 3.9e-06, "MEAN_MOTION_DDOT": 0}, "tle": {"line1": "1 29804U 99025CW  25341.96807461  .00000390  00000+0  26145-3 0  9996", "line2": "2 29804  98.8054 350.3224 0097391 315.2761 110.2747 14.04319180968277"}}, "geometry": {"type": "Point", "coordinates": [138.01984377660946, -74.06995345868886]}}, {"type": "Feature", "properties": {"norad_id": 29805, "name": "FENGYUN 1C DEB", "group": "fengyun-1c-debris", "lat": 8.956735173004784, "lon": -144.59439769700026, "alt_km": 941.6205263462807, "timestamp": "2025-12-08T13:49:32.063925+00:00", "meta": {"OBJECT_NAME": "FENGYUN 1C DEB", "OBJECT_ID": "1999-025CX", "EPOCH": "2025-12-08T02:28:51.355488", "MEAN_MOTION": 13.7265443, "ECCENTRICITY": 0.01878165, "INCLINATION": 99.4557, "RA_OF_ASC_NODE": 33.4339, "ARG_OF_PERICENTER": 241.8556, "MEAN_ANOMALY": 116.3503, "EPHEMERIS_TYPE": 0, "CLASSIFICATION_TYPE": "U", "NORAD_CAT_ID": 29805, "ELEMENT_SET_NO": 999, "REV_AT_EPOCH": 94639, "BSTAR": 0.00026020762, "MEAN_MOTION_DOT": 2.25e-06, "MEAN_MOTION_DDOT": 0}, "tle": {"line1": "1 29805U 99025CX  25342.10337217  .00000225  00000+0  26021-3 0  9991", "line2": "2 29805  99.4557  33.4339 0187816 241.8556 116.3503 13.72654430946397"}}, "geometry": {"type": "Point", "coordinates": [-144.59439769700026, 8.956735173004784]}}, {"type": "Feature", "properties": {"norad_id": 29806, "name": "FENGYUN 1C DEB", "group": "fengyun-1c-debris", "lat": 29.00185046973399, "lon": -176.639710790565, "alt_km": 859.0389499379526, "timestamp": "2025-12-08T13:49:32.063936+00:00", "meta": {"OBJECT_NAME": "FENGYUN 1C DEB", "OBJECT_ID": "1999-025CY", "EPOCH": "2025-12-08T08:04:14.203200", "MEAN_MOTION": 14.11994331, "ECCENTRICITY": 0.00275093, "INCLINATION": 98.7127, "RA_OF_ASC_NODE": 358.2509, "ARG_OF_PERICENTER": 264.8293, "MEAN_ANOMALY": 107.7743, "EPHEMERIS_TYPE": 0, "CLASSIFICATION_TYPE": "U", "NORAD_CAT_ID": 29806, "ELEMENT_SET_NO": 999, "REV_AT_EPOCH": 97077, "BSTAR": 0.00094563775, "MEAN_MOTION_DOT": 1.694e-05, "MEAN_MOTION_DDOT": 0}, "tle": {"line1": "1 29806U 99025CY  25342.33627550  .00001694  00000+0  94564-3 0  9997", "line2": "2 29806  98.7127 358.2509 0027509 264.8293 107.7743 14.11994331970775"}}, "geometry": {"type": "Point", "coordinates": [-176.639710790565, 29.00185046973399]}}, {"type": "Feature", "properties": {"norad_id": 29807, "name": "FENGYUN 1C DEB", "group": "fengyun-1c-debris", "lat": -79.15509773291053, "lon": 113.76812245211836, "alt_km": 861.0333622510398, "timestamp": "2025-12-08T13:49:32.063946+00:00", "meta": {"OBJECT_NAME": "FENGYUN 1C DEB", "OBJECT_ID": "1999-025CZ", "EPOCH": "2025-12-08T07:27:30.692160", "MEAN_MOTION": 14.08651563, "ECCENTRICITY": 0.00797548, "INCLINATION": 98.7547, "RA_OF_ASC_NODE": 347.0603, "ARG_OF_PERICENTER": 344.5211, "MEAN_ANOMALY": 15.3521, "EPHEMERIS_TYPE": 0, "CLASSIFICATION_TYPE": "U", "NORAD_CAT_ID": 29807, "ELEMENT_SET_NO": 999, "REV_AT_EPOCH": 97032, "BSTAR": 0.00052172007, "MEAN_MOTION_DOT": 8.81e-06, "MEAN_MOTION_DDOT": 0}, "tle": {"line1": "1 29807U 99025CZ  25342.31077190  .00000881  00000+0  52172-3 0  9991", "line2": "2 29807  98.7547 347.0603 0079754 344.5211  15.3521 14.08651563970320"}}, "geometry": {"type": "Point", "coordinates": [113.76812245211836, -79.15509773291053]}}]}